start=new Date('2022-04-15T00:00:00.000Z').valueOf();
sats=[{"EPHEMERIS_TYPE":"0","PERIOD":"95.591","TIME_SYSTEM":"UTC","ELEMENT_SET_NO":"999","ECCENTRICITY":"0.00016880","TLE_LINE1":"1 44920U 20001G   22104.68027889  .00008616  00000-0  59639-3 0  9995","COUNTRY_CODE":"US","BSTAR":"0.00059639000000","REV_AT_EPOCH":"12506","PERIAPSIS":"546.000","DECAY_DATE":null,"OBJECT_TYPE":"PAYLOAD","EPOCH":"2022-04-14T16:19:36.096096","APOAPSIS":"548.338","MEAN_ELEMENT_THEORY":"SGP4","SEMIMAJOR_AXIS":"6925.304","CLASSIFICATION_TYPE":"U","OBJECT_ID":"2020-001G","OBJECT_NAME":"STARLINK-1102","RA_OF_ASC_NODE":"263.7355","MEAN_MOTION":"15.06414567","MEAN_MOTION_DDOT":"0.0000000000000","NORAD_CAT_ID":"44920","INCLINATION":"53.0525","MEAN_ANOMALY":"306.9121","RCS_SIZE":"LARGE","GP_ID":"201254563","CENTER_NAME":"EARTH","REF_FRAME":"TEME","MEAN_MOTION_DOT":"0.00008616","SITE":"AFETR","ARG_OF_PERICENTER":"53.2023","TLE_LINE2":"2 44920  53.0525 263.7355 0001688  53.2023 306.9121 15.06414567125065","FILE":"3401977","LAUNCH_DATE":"2020-01-07"},{"PERIAPSIS":"546.214","DECAY_DATE":null,"REV_AT_EPOCH":"12504","COUNTRY_CODE":"US","BSTAR":"0.00015913000000","TLE_LINE1":"1 44921U 20001H   22104.70238183  .00002090  00000-0  15913-3 0  9997","ELEMENT_SET_NO":"999","ECCENTRICITY":"0.00014360","EPHEMERIS_TYPE":"0","TIME_SYSTEM":"UTC","PERIOD":"95.592","CLASSIFICATION_TYPE":"U","APOAPSIS":"548.203","MEAN_ELEMENT_THEORY":"SGP4","SEMIMAJOR_AXIS":"6925.343","EPOCH":"2022-04-14T16:51:25.790112","OBJECT_TYPE":"PAYLOAD","MEAN_ANOMALY":"294.2409","MEAN_MOTION_DDOT":"0.0000000000000","INCLINATION":"53.0536","NORAD_CAT_ID":"44921","OBJECT_NAME":"STARLINK-1103","RA_OF_ASC_NODE":"263.6214","MEAN_MOTION":"15.06401685","OBJECT_ID":"2020-001H","LAUNCH_DATE":"2020-01-07","TLE_LINE2":"2 44921  53.0536 263.6214 0001436  65.8730 294.2409 15.06401685125049","ARG_OF_PERICENTER":"65.8730","SITE":"AFETR","FILE":"3401783","REF_FRAME":"TEME","MEAN_MOTION_DOT":"0.00002090","RCS_SIZE":"LARGE","GP_ID":"201232336","CENTER_NAME":"EARTH"},{"ECCENTRICITY":"0.00014440","ELEMENT_SET_NO":"999","TIME_SYSTEM":"UTC","PERIOD":"95.593","EPHEMERIS_TYPE":"0","DECAY_DATE":null,"PERIAPSIS":"546.242","BSTAR":"0.00001873600000","COUNTRY_CODE":"US","REV_AT_EPOCH":"12507","TLE_LINE1":"1 44922U 20001J   22104.73556527 -.00000002  00000-0  18736-4 0  9995","EPOCH":"2022-04-14T17:39:12.839328","OBJECT_TYPE":"PAYLOAD","CLASSIFICATION_TYPE":"U","SEMIMAJOR_AXIS":"6925.377","MEAN_ELEMENT_THEORY":"SGP4","APOAPSIS":"548.242","RA_OF_ASC_NODE":"263.4675","MEAN_MOTION":"15.06390768","OBJECT_NAME":"STARLINK-1104","OBJECT_ID":"2020-001J","MEAN_ANOMALY":"297.2923","INCLINATION":"53.0537","NORAD_CAT_ID":"44922","MEAN_MOTION_DDOT":"0.0000000000000","MEAN_MOTION_DOT":"-0.00000002","REF_FRAME":"TEME","CENTER_NAME":"EARTH","GP_ID":"201232321","RCS_SIZE":"LARGE","LAUNCH_DATE":"2020-01-07","FILE":"3401782","TLE_LINE2":"2 44922  53.0537 263.4675 0001444  62.8213 297.2923 15.06390768125078","ARG_OF_PERICENTER":"62.8213","SITE":"AFETR"},{"CLASSIFICATION_TYPE":"U","SEMIMAJOR_AXIS":"6925.341","MEAN_ELEMENT_THEORY":"SGP4","APOAPSIS":"548.130","OBJECT_TYPE":"PAYLOAD","EPOCH":"2022-04-14T16:40:49.848096","DECAY_DATE":null,"PERIAPSIS":"546.283","TLE_LINE1":"1 44923U 20001K   22104.69502139  .00004827  00000-0  34269-3 0  9997","REV_AT_EPOCH":"12506","COUNTRY_CODE":"US","BSTAR":"0.00034269000000","ECCENTRICITY":"0.00013340","ELEMENT_SET_NO":"999","PERIOD":"95.592","TIME_SYSTEM":"UTC","EPHEMERIS_TYPE":"0","LAUNCH_DATE":"2020-01-07","FILE":"3401782","SITE":"AFETR","ARG_OF_PERICENTER":"61.6087","TLE_LINE2":"2 44923  53.0560 263.6688 0001334  61.6087 298.5036 15.06402318125068","MEAN_MOTION_DOT":"0.00004827","REF_FRAME":"TEME","GP_ID":"201232316","CENTER_NAME":"EARTH","RCS_SIZE":"LARGE","MEAN_ANOMALY":"298.5036","NORAD_CAT_ID":"44923","INCLINATION":"53.0560","MEAN_MOTION_DDOT":"0.0000000000000","RA_OF_ASC_NODE":"263.6688","OBJECT_NAME":"STARLINK-1106","MEAN_MOTION":"15.06402318","OBJECT_ID":"2020-001K"},{"REF_FRAME":"TEME","MEAN_MOTION_DOT":"0.00000781","RCS_SIZE":"LARGE","CENTER_NAME":"EARTH","GP_ID":"201255058","LAUNCH_DATE":"2020-01-07","SITE":"AFETR","TLE_LINE2":"2 44924  53.0553 263.7204 0001480  64.7069 295.4073 15.06393452125067","ARG_OF_PERICENTER":"64.7069","FILE":"3401977","MEAN_MOTION":"15.06393452","OBJECT_NAME":"STARLINK-1111","RA_OF_ASC_NODE":"263.7204","OBJECT_ID":"2020-001L","MEAN_ANOMALY":"295.4073","MEAN_MOTION_DDOT":"0.0000000000000","NORAD_CAT_ID":"44924","INCLINATION":"53.0553","OBJECT_TYPE":"PAYLOAD","EPOCH":"2022-04-14T16:24:54.207936","CLASSIFICATION_TYPE":"U","APOAPSIS":"548.259","MEAN_ELEMENT_THEORY":"SGP4","SEMIMAJOR_AXIS":"6925.369","ELEMENT_SET_NO":"999","ECCENTRICITY":"0.00014800","EPHEMERIS_TYPE":"0","PERIOD":"95.593","TIME_SYSTEM":"UTC","PERIAPSIS":"546.209","DECAY_DATE":null,"TLE_LINE1":"1 44924U 20001L   22104.68396074  .00000781  00000-0  71364-4 0  9999","COUNTRY_CODE":"US","BSTAR":"0.00007136400000","REV_AT_EPOCH":"12506"},{"REF_FRAME":"TEME","MEAN_MOTION_DOT":"0.00007668","RCS_SIZE":"LARGE","GP_ID":"201254814","CENTER_NAME":"EARTH","LAUNCH_DATE":"2020-01-07","SITE":"AFETR","ARG_OF_PERICENTER":"58.4944","TLE_LINE2":"2 44925  53.0538 263.6439 0001796  58.4944 301.6220 15.06410432125064","FILE":"3401977","RA_OF_ASC_NODE":"263.6439","OBJECT_NAME":"STARLINK-1112","MEAN_MOTION":"15.06410432","OBJECT_ID":"2020-001M","MEAN_ANOMALY":"301.6220","MEAN_MOTION_DDOT":"0.0000000000000","NORAD_CAT_ID":"44925","INCLINATION":"53.0538","OBJECT_TYPE":"PAYLOAD","EPOCH":"2022-04-14T16:46:08.984640","CLASSIFICATION_TYPE":"U","APOAPSIS":"548.425","MEAN_ELEMENT_THEORY":"SGP4","SEMIMAJOR_AXIS":"6925.317","ELEMENT_SET_NO":"999","ECCENTRICITY":"0.00017960","EPHEMERIS_TYPE":"0","PERIOD":"95.591","TIME_SYSTEM":"UTC","PERIAPSIS":"545.938","DECAY_DATE":null,"TLE_LINE1":"1 44925U 20001M   22104.69871510  .00007668  00000-0  53296-3 0  9998","BSTAR":"0.00053296000000","COUNTRY_CODE":"US","REV_AT_EPOCH":"12506"},{"TIME_SYSTEM":"UTC","PERIOD":"95.644","EPHEMERIS_TYPE":"0","ELEMENT_SET_NO":"999","ECCENTRICITY":"0.00015700","BSTAR":"0.00036808000000","COUNTRY_CODE":"US","REV_AT_EPOCH":"12578","TLE_LINE1":"1 44926U 20001N   22104.73965163  .00005089  00000-0  36808-3 0  9997","DECAY_DATE":null,"PERIAPSIS":"548.609","EPOCH":"2022-04-14T17:45:05.900832","OBJECT_TYPE":"PAYLOAD","SEMIMAJOR_AXIS":"6927.832","MEAN_ELEMENT_THEORY":"SGP4","APOAPSIS":"550.784","CLASSIFICATION_TYPE":"U","OBJECT_ID":"2020-001N","OBJECT_NAME":"STARLINK-1113","MEAN_MOTION":"15.05590210","RA_OF_ASC_NODE":"263.4761","INCLINATION":"53.0023","NORAD_CAT_ID":"44926","MEAN_MOTION_DDOT":"0.0000000000000","MEAN_ANOMALY":"287.4060","CENTER_NAME":"EARTH","GP_ID":"201254057","RCS_SIZE":"LARGE","MEAN_MOTION_DOT":"0.00005089","REF_FRAME":"TEME","FILE":"3401977","ARG_OF_PERICENTER":"72.7100","TLE_LINE2":"2 44926  53.0023 263.4761 0001570  72.7100 287.4060 15.05590210125787","SITE":"AFETR","LAUNCH_DATE":"2020-01-07"},{"ELEMENT_SET_NO":"999","ECCENTRICITY":"0.00016200","TIME_SYSTEM":"UTC","PERIOD":"95.592","EPHEMERIS_TYPE":"0","DECAY_DATE":null,"PERIAPSIS":"546.066","BSTAR":"0.00045700000000","COUNTRY_CODE":"US","REV_AT_EPOCH":"12507","TLE_LINE1":"1 44927U 20001P   22104.70976969  .00006533  00000-0  45700-3 0  9997","EPOCH":"2022-04-14T17:02:04.101216","OBJECT_TYPE":"PAYLOAD","CLASSIFICATION_TYPE":"U","SEMIMAJOR_AXIS":"6925.323","APOAPSIS":"548.310","MEAN_ELEMENT_THEORY":"SGP4","OBJECT_NAME":"STARLINK-1114","MEAN_MOTION":"15.06408253","RA_OF_ASC_NODE":"263.5912","OBJECT_ID":"2020-001P","MEAN_ANOMALY":"302.2269","INCLINATION":"53.0531","NORAD_CAT_ID":"44927","MEAN_MOTION_DDOT":"0.0000000000000","MEAN_MOTION_DOT":"0.00006533","REF_FRAME":"TEME","GP_ID":"201232326","CENTER_NAME":"EARTH","RCS_SIZE":"LARGE","LAUNCH_DATE":"2020-01-07","FILE":"3401785","TLE_LINE2":"2 44927  53.0531 263.5912 0001620  57.8877 302.2269 15.06408253125077","ARG_OF_PERICENTER":"57.8877","SITE":"AFETR"},{"CENTER_NAME":"EARTH","GP_ID":"201254564","RCS_SIZE":"LARGE","MEAN_MOTION_DOT":"0.00002184","REF_FRAME":"TEME","FILE":"3401977","SITE":"AFETR","ARG_OF_PERICENTER":"55.8234","TLE_LINE2":"2 44928  53.0538 263.6155 0001797  55.8234 304.2925 15.06395669125072","LAUNCH_DATE":"2020-01-07","OBJECT_ID":"2020-001Q","RA_OF_ASC_NODE":"263.6155","OBJECT_NAME":"STARLINK-1119","MEAN_MOTION":"15.06395669","NORAD_CAT_ID":"44928","INCLINATION":"53.0538","MEAN_MOTION_DDOT":"0.0000000000000","MEAN_ANOMALY":"304.2925","OBJECT_TYPE":"PAYLOAD","EPOCH":"2022-04-14T16:56:44.129184","SEMIMAJOR_AXIS":"6925.362","APOAPSIS":"548.471","MEAN_ELEMENT_THEORY":"SGP4","CLASSIFICATION_TYPE":"U","PERIOD":"95.592","TIME_SYSTEM":"UTC","EPHEMERIS_TYPE":"0","ELEMENT_SET_NO":"999","ECCENTRICITY":"0.00017970","TLE_LINE1":"1 44928U 20001Q   22104.70606631  .00002184  00000-0  16550-3 0  9993","COUNTRY_CODE":"US","BSTAR":"0.00016550000000","REV_AT_EPOCH":"12507","DECAY_DATE":null,"PERIAPSIS":"545.982"},{"OBJECT_NAME":"STARLINK-1121","MEAN_MOTION":"15.06400566","RA_OF_ASC_NODE":"263.6726","OBJECT_ID":"2020-001R","MEAN_ANOMALY":"302.3673","INCLINATION":"53.0551","NORAD_CAT_ID":"44929","MEAN_MOTION_DDOT":"0.0000000000000","MEAN_MOTION_DOT":"0.00001922","REF_FRAME":"TEME","CENTER_NAME":"EARTH","GP_ID":"201255309","RCS_SIZE":"LARGE","LAUNCH_DATE":"2020-01-07","FILE":"3401977","TLE_LINE2":"2 44929  53.0551 263.6726 0001658  57.7477 302.3673 15.06400566125069","ARG_OF_PERICENTER":"57.7477","SITE":"AFETR","ECCENTRICITY":"0.00016580","ELEMENT_SET_NO":"999","TIME_SYSTEM":"UTC","PERIOD":"95.592","EPHEMERIS_TYPE":"0","DECAY_DATE":null,"PERIAPSIS":"546.064","BSTAR":"0.00014792000000","COUNTRY_CODE":"US","REV_AT_EPOCH":"12506","TLE_LINE1":"1 44929U 20001R   22104.69133071  .00001922  00000-0  14792-3 0  9990","EPOCH":"2022-04-14T16:35:30.973344","OBJECT_TYPE":"PAYLOAD","CLASSIFICATION_TYPE":"U","SEMIMAJOR_AXIS":"6925.347","APOAPSIS":"548.360","MEAN_ELEMENT_THEORY":"SGP4"}];
